KUIPER-00157            
1 65970U 25228Z   25316.90888139  .00076516  00000+0  22193-2 0  9992
2 65970  51.8752 164.3659 0004971 264.9072  95.1346 15.34832610  5839
